ICEYE-X40               
1 60549U 24149CK  26204.17221952  .00003771  00000+0  32330-3 0  9998
2 60549  97.6807 280.0905 0003447 340.6815  19.4277 14.98119669105462
SATELIOT_1              
1 60550U 24149CL  26204.16066633  .00002317  00000+0  20016-3 0  9995
2 60550  97.6739 279.4595 0004894 328.0015  32.0910 14.98190726105451
BRO-14                  
1 60551U 24149CM  26204.17501866  .00000836  00000+0  79103-4 0  9995
2 60551  97.6860 279.3055 0006106 351.4204   8.6912 14.96252866105379
SATELIOT_3              
1 60552U 24149CN  26204.20339591  .00001525  00000+0  13346-3 0  9996
2 60552  97.6801 280.3276 0004245 331.2245  28.8742 14.98179247105474
BRO-15                  
1 60553U 24149CP  26204.15780789  .00001175  00000+0  10915-3 0  9990
2 60553  97.6790 278.8566 0006954 338.6919  21.4012 14.96233560105380
UM5-RIBAT               
1 60554U 24149CQ  26204.19993787  .00002093  00000+0  16760-3 0  9993
2 60554  97.6589 281.5100 0000663 235.7052 124.4109 15.01244518105594
UM5-EOSAT               
1 60555U 24149CR  26204.15451418  .00002702  00000+0  21197-3 0  9997
2 60555  97.6777 282.4917 0008723  14.4039 345.7432 15.01765048105618
LASARSAT                
1 62391U 24247Q   26203.67494438  .00037711  00000+0  69745-3 0  9990
2 62391  44.9745  62.4735 0008603 212.5816 147.4545 15.48423365 88811
CROCUBE                 
1 62394U 24247T   26203.94787493  .00048107  00000+0  81915-3 0  9993
2 62394  44.9710  57.6351 0008728 220.4792 139.5451 15.50668241 88898
TEVEL2-4                
1 63213U 25052D   26204.16105969  .00019975  00000+0  57523-3 0  9995
2 63213  97.3852 100.6345 0002749  36.8578 323.2855 15.35785273 75634
TEVEL2-5                
1 63214U 25052E   26204.12064543  .00022371  00000+0  64765-3 0  9994
2 63214  97.3847 100.5315 0002796  37.6087 322.5351 15.35594951 75624
TEVEL2-6                
1 63215U 25052F   26203.67764483  .00020647  00000+0  59914-3 0  9998
2 63215  97.3857 100.0719 0002905  41.4403 318.7060 15.35538157 75558
TEVEL2-1                
1 63217U 25052H   26204.17584741  .00019031  00000+0  56235-3 0  9991
2 63217  97.3828 100.1515 0003481  42.9181 317.2333 15.34981736 75610
TEVEL2-3                
1 63218U 25052J   26204.16907910  .00018992  00000+0  56009-3 0  9992
2 63218  97.3845 100.1708 0003319  47.1556 312.9966 15.35045842 75611
TEVEL2-2                
1 63219U 25052K   26204.17591660  .00019088  00000+0  56382-3 0  9996
2 63219  97.3828 100.1546 0003555  43.1044 317.0478 15.34993188 75611
TEVEL2-9                
1 63237U 25052AD  26204.13561891  .00017574  00000+0  55412-3 0  9996
2 63237  97.3893  99.4092 0006834  33.9288 326.2390 15.32921682 75533
TEVEL2-7                
1 63238U 25052AE  26204.18374539  .00017497  00000+0  55721-3 0  9990
2 63238  97.3892  99.3574 0006947  34.3154 325.8535 15.32602566 75532
TEVEL2-8                
1 63239U 25052AF  26204.19234242  .00017529  00000+0  55846-3 0  9992
2 63239  97.3893  99.3419 0006998  35.0909 325.0793 15.32588658 75537
FORESAIL-1 PRIME        
1 66778U 25276DS  26204.23117181  .00004064  00000+0  19751-3 0  9993
2 66778  97.4185 276.8460 0002247  25.0792 335.0551 15.18986431 35874
