OBJECT_NAME,OBJECT_ID,EPOCH,MEAN_MOTION,ECCENTRICITY,INCLINATION,RA_OF_ASC_NODE,ARG_OF_PERICENTER,MEAN_ANOMALY,EPHEMERIS_TYPE,CLASSIFICATION_TYPE,NORAD_CAT_ID,ELEMENT_SET_NO,REV_AT_EPOCH,BSTAR,MEAN_MOTION_DOT,MEAN_MOTION_DDOT
ICEYE-X40,2024-149CK,2026-07-23T04:07:59.766528,14.98119669,.00034479,97.6807,280.0905,340.6815,19.4277,0,U,60549,999,10546,.32329726E-3,.3771E-4,0
SATELIOT_1,2024-149CL,2026-07-23T03:51:21.570912,14.98190726,.00048943,97.6739,279.4595,328.0015,32.0910,0,U,60550,999,10545,.20015935E-3,.2317E-4,0
BRO-14,2024-149CM,2026-07-23T04:12:01.612224,14.96252866,.00061063,97.6860,279.3055,351.4204,8.6912,0,U,60551,999,10537,.79102875E-4,.836E-5,0
SATELIOT_3,2024-149CN,2026-07-23T04:52:53.406624,14.98179247,.00042458,97.6801,280.3276,331.2245,28.8742,0,U,60552,999,10547,.13346363E-3,.1525E-4,0
BRO-15,2024-149CP,2026-07-23T03:47:14.601696,14.96233560,.00069547,97.6790,278.8566,338.6919,21.4012,0,U,60553,999,10538,.10914973E-3,.1175E-4,0
UM5-RIBAT,2024-149CQ,2026-07-23T04:47:54.631968,15.01244518,.00006634,97.6589,281.5100,235.7052,124.4109,0,U,60554,999,10559,.16759986E-3,.2093E-4,0
UM5-EOSAT,2024-149CR,2026-07-23T03:42:30.025152,15.01765048,.00087238,97.6777,282.4917,14.4039,345.7432,0,U,60555,999,10561,.21197024E-3,.2702E-4,0
LASARSAT,2024-247Q,2026-07-22T16:11:55.194432,15.48423365,.00086031,44.9745,62.4735,212.5816,147.4545,0,U,62391,999,8881,.69745167E-3,.37711E-3,0
CROCUBE,2024-247T,2026-07-22T22:44:56.393952,15.50668241,.0008728,44.9710,57.6351,220.4792,139.5451,0,U,62394,999,8889,.81914862E-3,.48107E-3,0
TEVEL2-4,2025-052D,2026-07-23T03:51:55.557216,15.35785273,.00027495,97.3852,100.6345,36.8578,323.2855,0,U,63213,999,7563,.57522706E-3,.19975E-3,0
TEVEL2-5,2025-052E,2026-07-23T02:53:43.765152,15.35594951,.00027969,97.3847,100.5315,37.6087,322.5351,0,U,63214,999,7562,.64765456E-3,.22371E-3,0
TEVEL2-6,2025-052F,2026-07-22T16:15:48.513312,15.35538157,.0002905,97.3857,100.0719,41.4403,318.7060,0,U,63215,999,7555,.59913706E-3,.20647E-3,0
TEVEL2-1,2025-052H,2026-07-23T04:13:13.216224,15.34981736,.00034813,97.3828,100.1515,42.9181,317.2333,0,U,63217,999,7561,.56235343E-3,.19031E-3,0
TEVEL2-3,2025-052J,2026-07-23T04:03:28.434240,15.35045842,.00033196,97.3845,100.1708,47.1556,312.9966,0,U,63218,999,7561,.56009114E-3,.18992E-3,0
TEVEL2-2,2025-052K,2026-07-23T04:13:19.194240,15.34993188,.00035552,97.3828,100.1546,43.1044,317.0478,0,U,63219,999,7561,.56381978E-3,.19088E-3,0
TEVEL2-9,2025-052AD,2026-07-23T03:15:17.473824,15.32921682,.00068345,97.3893,99.4092,33.9288,326.2390,0,U,63237,999,7553,.55411748E-3,.17574E-3,0
TEVEL2-7,2025-052AE,2026-07-23T04:24:35.601696,15.32602566,.00069479,97.3892,99.3574,34.3154,325.8535,0,U,63238,999,7553,.55720876E-3,.17497E-3,0
TEVEL2-8,2025-052AF,2026-07-23T04:36:58.385088,15.32588658,.00069989,97.3893,99.3419,35.0909,325.0793,0,U,63239,999,7553,.55845837E-3,.17529E-3,0
FORESAIL-1 PRIME,2025-276DS,2026-07-23T05:32:53.244384,15.18986431,.00022474,97.4185,276.8460,25.0792,335.0551,0,U,66778,999,3587,.19750842E-3,.4064E-4,0
